{
  "norad_id": 68357,
  "name": "CENTISPACE-1 OBJECT H",
  "history": [
    {
      "epoch": "2026-03-25T14:49:38.254368",
      "apogee_km": 653.9634705075323,
      "perigee_km": 633.6407148243197,
      "latitude_deg": -2.4673883154602834,
      "longitude_deg": 67.00917152012698,
      "semi_major_axis_km": 7021.939092665925,
      "eccentricity": 0.00144709,
      "inclination_deg": 54.9848,
      "raan_deg": 16.6351,
      "arg_perigee_deg": 304.4277,
      "mean_anomaly_deg": 55.5354,
      "mean_motion_rev_day": 14.75425125
    }
  ]
}